{
  "norad_id": 67467,
  "name": "STARLINK-36425",
  "history": [
    {
      "epoch": "2026-03-28T17:54:24.908832Z",
      "apogee_km": 483.3961852221919,
      "perigee_km": 482.6265016010284,
      "latitude_deg": 1.699886475809006e-06,
      "longitude_deg": 3.104168109987477,
      "height_km": 482.70057312098834,
      "semi_major_axis_km": 6861.14834341161,
      "eccentricity": 5.609e-05,
      "inclination_deg": 43.0007,
      "raan_deg": 97.8701,
      "arg_perigee_deg": 283.0357,
      "mean_anomaly_deg": 77.0432,
      "mean_motion_rev_day": 15.27592608
    },
    {
      "epoch": "2026-03-29T01:45:11.539872Z",
      "apogee_km": 483.39101806364215,
      "perigee_km": 482.59375482893756,
      "latitude_deg": -1.9839464804403206e-06,
      "longitude_deg": -116.75826741261,
      "height_km": 482.8363587935983,
      "semi_major_axis_km": 6861.12938644629,
      "eccentricity": 5.81e-05,
      "inclination_deg": 43.0011,
      "raan_deg": 96.0242,
      "arg_perigee_deg": 260.1941,
      "mean_anomaly_deg": 99.8845,
      "mean_motion_rev_day": 15.27598939
    },
    {
      "epoch": "2026-03-29T01:45:11.540736Z",
      "apogee_km": 483.39094945234865,
      "perigee_km": 482.59382344023106,
      "latitude_deg": -2.7615353935833356e-06,
      "longitude_deg": -116.75827185168616,
      "height_km": 482.83634711029424,
      "semi_major_axis_km": 6861.12938644629,
      "eccentricity": 5.809e-05,
      "inclination_deg": 43.0011,
      "raan_deg": 96.0242,
      "arg_perigee_deg": 260.1941,
      "mean_anomaly_deg": 99.8845,
      "mean_motion_rev_day": 15.27598939
    },
    {
      "epoch": "2026-03-30T10:42:28.606752Z",
      "apogee_km": 483.3336800394236,
      "perigee_km": 482.6637587477826,
      "latitude_deg": 3.774383580122808e-05,
      "longitude_deg": 99.81236082679676,
      "height_km": 482.9719050448095,
      "semi_major_axis_km": 6861.135719393603,
      "eccentricity": 4.882e-05,
      "inclination_deg": 43.0007,
      "raan_deg": 88.2693,
      "arg_perigee_deg": 233.9033,
      "mean_anomaly_deg": 126.1774,
      "mean_motion_rev_day": 15.27596824
    },
    {
      "epoch": "2026-03-30T16:59:05.634240Z",
      "apogee_km": 484.6619989825731,
      "perigee_km": 481.3923797997595,
      "latitude_deg": 2.5173528298067495e-05,
      "longitude_deg": 3.9253812583697036,
      "height_km": 482.799588546667,
      "semi_major_axis_km": 6861.164189391166,
      "eccentricity": 0.00023827,
      "inclination_deg": 43.0045,
      "raan_deg": 86.7944,
      "arg_perigee_deg": 270.1945,
      "mean_anomaly_deg": 89.8634,
      "mean_motion_rev_day": 15.27587316
    },
    {
      "epoch": "2026-03-31T16:31:27.771168Z",
      "apogee_km": 484.39514996243815,
      "perigee_km": 481.61364324025635,
      "latitude_deg": 2.4702229612911145e-05,
      "longitude_deg": 4.324712668998703,
      "height_km": 482.71025908516214,
      "semi_major_axis_km": 6861.141396601347,
      "eccentricity": 0.0002027,
      "inclination_deg": 43.0014,
      "raan_deg": 81.2527,
      "arg_perigee_deg": 272.9466,
      "mean_anomaly_deg": 87.1154,
      "mean_motion_rev_day": 15.27594928
    },
    {
      "epoch": "2026-04-01T16:03:49.021632Z",
      "apogee_km": 483.5928397206244,
      "perigee_km": 482.4854458911741,
      "latitude_deg": 1.2296899359196769e-05,
      "longitude_deg": 4.7329350254829485,
      "height_km": 482.50120303647043,
      "semi_major_axis_km": 6861.176142805899,
      "eccentricity": 8.07e-05,
      "inclination_deg": 42.9921,
      "raan_deg": 75.7162,
      "arg_perigee_deg": 55.728,
      "mean_anomaly_deg": 304.3648,
      "mean_motion_rev_day": 15.27583324
    },
    {
      "epoch": "2026-04-02T15:36:08.991648Z",
      "apogee_km": 483.23167766621555,
      "perigee_km": 482.7920152481347,
      "latitude_deg": -4.029405264224097e-05,
      "longitude_deg": 5.14116392005473,
      "height_km": 482.66893706443295,
      "semi_major_axis_km": 6861.148846457175,
      "eccentricity": 3.204e-05,
      "inclination_deg": 42.9973,
      "raan_deg": 70.1744,
      "arg_perigee_deg": 302.5595,
      "mean_anomaly_deg": 57.5225,
      "mean_motion_rev_day": 15.2759244
    },
    {
      "epoch": "2026-04-02T23:26:55.551840Z",
      "apogee_km": 483.0365439752022,
      "perigee_km": 482.863095700397,
      "latitude_deg": -1.8102695547612853e-05,
      "longitude_deg": -114.72164770432998,
      "height_km": 482.6508817925385,
      "semi_major_axis_km": 6861.086819837799,
      "eccentricity": 1.264e-05,
      "inclination_deg": 43.0023,
      "raan_deg": 68.3278,
      "arg_perigee_deg": 329.4392,
      "mean_anomaly_deg": 30.6452,
      "mean_motion_rev_day": 15.27613155
    },
    {
      "epoch": "2026-04-03T15:08:28.922784Z",
      "apogee_km": 484.0838253483853,
      "perigee_km": 481.79085430401483,
      "latitude_deg": -2.8322646904226666e-05,
      "longitude_deg": 5.553823457655828,
      "height_km": 482.2504367283105,
      "semi_major_axis_km": 6861.074339826199,
      "eccentricity": 0.0001671,
      "inclination_deg": 43.0004,
      "raan_deg": 64.6368,
      "arg_perigee_deg": 293.8634,
      "mean_anomaly_deg": 66.2042,
      "mean_motion_rev_day": 15.27617323
    },
    {
      "epoch": "2026-04-04T14:40:50.815200Z",
      "apogee_km": 484.22562818887945,
      "perigee_km": 481.84205743808616,
      "latitude_deg": -4.164551925664303e-05,
      "longitude_deg": 5.955460844586142,
      "height_km": 482.6932567095849,
      "semi_major_axis_km": 6861.1708428134825,
      "eccentricity": 0.0001737,
      "inclination_deg": 43.006,
      "raan_deg": 59.0964,
      "arg_perigee_deg": 275.6939,
      "mean_anomaly_deg": 84.3714,
      "mean_motion_rev_day": 15.27585094
    },
    {
      "epoch": "2026-04-05T06:22:24.466080Z",
      "apogee_km": 483.7902758080136,
      "perigee_km": 482.1463549744467,
      "latitude_deg": -2.071410324999087e-05,
      "longitude_deg": 126.23079481604705,
      "height_km": 482.60778827392255,
      "semi_major_axis_km": 6861.10531539123,
      "eccentricity": 0.0001198,
      "inclination_deg": 43.0043,
      "raan_deg": 55.4064,
      "arg_perigee_deg": 279.6329,
      "mean_anomaly_deg": 80.4387,
      "mean_motion_rev_day": 15.27606978
    },
    {
      "epoch": "2026-04-06T05:54:45.161856Z",
      "apogee_km": 484.3652273934449,
      "perigee_km": 481.61679673437266,
      "latitude_deg": -1.223505281326057e-05,
      "longitude_deg": 126.63885377777761,
      "height_km": 482.6399359463837,
      "semi_major_axis_km": 6861.1280120639085,
      "eccentricity": 0.00020029,
      "inclination_deg": 43.0064,
      "raan_deg": 49.8674,
      "arg_perigee_deg": 275.3854,
      "mean_anomaly_deg": 84.6769,
      "mean_motion_rev_day": 15.27599398
    },
    {
      "epoch": "2026-04-07T21:08:40.056288Z",
      "apogee_km": 483.56314624326205,
      "perigee_km": 482.45301296938123,
      "latitude_deg": -4.507499822533846e-06,
      "longitude_deg": -112.68526674063737,
      "height_km": 483.32288146443915,
      "semi_major_axis_km": 6861.145079606322,
      "eccentricity": 8.09e-05,
      "inclination_deg": 42.9964,
      "raan_deg": 40.6332,
      "arg_perigee_deg": 166.6489,
      "mean_anomaly_deg": 193.4384,
      "mean_motion_rev_day": 15.27593698
    },
    {
      "epoch": "2026-04-08T12:50:13.797024Z",
      "apogee_km": 484.0823699098728,
      "perigee_km": 481.965427326214,
      "latitude_deg": -1.7219922793849928e-05,
      "longitude_deg": 7.587754777962387,
      "height_km": 482.72707930011086,
      "semi_major_axis_km": 6861.160898618044,
      "eccentricity": 0.00015427,
      "inclination_deg": 43.0011,
      "raan_deg": 36.9413,
      "arg_perigee_deg": 273.9964,
      "mean_anomaly_deg": 86.0711,
      "mean_motion_rev_day": 15.27588415
    },
    {
      "epoch": "2026-04-09T12:22:34.435776Z",
      "apogee_km": 483.8618337613625,
      "perigee_km": 482.1841429210135,
      "latitude_deg": -1.932389663435169e-05,
      "longitude_deg": 7.996339697923122,
      "height_km": 482.60759695959814,
      "semi_major_axis_km": 6861.159988341188,
      "eccentricity": 0.00012226,
      "inclination_deg": 43.0051,
      "raan_deg": 31.4026,
      "arg_perigee_deg": 283.2675,
      "mean_anomaly_deg": 76.804,
      "mean_motion_rev_day": 15.27588719
    },
    {
      "epoch": "2026-04-10T11:54:55.713888Z",
      "apogee_km": 483.526479506796,
      "perigee_km": 482.55768102066304,
      "latitude_deg": -6.410207024378627e-06,
      "longitude_deg": 8.401469676570487,
      "height_km": 482.53389845324557,
      "semi_major_axis_km": 6861.17908026373,
      "eccentricity": 7.06e-05,
      "inclination_deg": 43.0024,
      "raan_deg": 25.8631,
      "arg_perigee_deg": 305.9614,
      "mean_anomaly_deg": 54.1172,
      "mean_motion_rev_day": 15.27582343
    },
    {
      "epoch": "2026-04-11T11:27:16.047648Z",
      "apogee_km": 483.6788991072517,
      "perigee_km": 482.324510326941,
      "latitude_deg": -1.7215793063699882e-05,
      "longitude_deg": 8.810420588149107,
      "height_km": 482.60680976521553,
      "semi_major_axis_km": 6861.1387047170965,
      "eccentricity": 9.87e-05,
      "inclination_deg": 43.0053,
      "raan_deg": 20.3235,
      "arg_perigee_deg": 284.6988,
      "mean_anomaly_deg": 75.3754,
      "mean_motion_rev_day": 15.27595827
    },
    {
      "epoch": "2026-04-13T01:07:02.034048Z",
      "apogee_km": 483.93705827095346,
      "perigee_km": 482.1147334058178,
      "latitude_deg": -1.2850984077061886e-05,
      "longitude_deg": 153.4611587780745,
      "height_km": 482.5542569359928,
      "semi_major_axis_km": 6861.162895838385,
      "eccentricity": 0.0001328,
      "inclination_deg": 43.0027,
      "raan_deg": 11.4626,
      "arg_perigee_deg": 285.8316,
      "mean_anomaly_deg": 74.2389,
      "mean_motion_rev_day": 15.27587748
    },
    {
      "epoch": "2026-04-14T10:04:19.306560Z",
      "apogee_km": 484.09808867532684,
      "perigee_km": 481.9867665418633,
      "latitude_deg": -3.987918025246147e-05,
      "longitude_deg": 10.03135689189555,
      "height_km": 482.7610812774665,
      "semi_major_axis_km": 6861.179427608595,
      "eccentricity": 0.00015386,
      "inclination_deg": 43.0023,
      "raan_deg": 3.7082,
      "arg_perigee_deg": 273.1728,
      "mean_anomaly_deg": 86.8947,
      "mean_motion_rev_day": 15.27582227
    }
  ]
}